[{"OBJECT_NAME":"STARLINK-31634","OBJECT_ID":"2024-057L","EPOCH":"2026-03-09T08:15:21.559392","MEAN_MOTION":15.27574143,"ECCENTRICITY":0.00016309,"INCLINATION":43.004,"RA_OF_ASC_NODE":189.2481,"ARG_OF_PERICENTER":278.7256,"MEAN_ANOMALY":81.3411,"EPHEMERIS_TYPE":0,"CLASSIFICATION_TYPE":"U","NORAD_CAT_ID":59330,"ELEMENT_SET_NO":999,"REV_AT_EPOCH":10978,"BSTAR":-5.895482e-6,"MEAN_MOTION_DOT":-4.24e-6,"MEAN_MOTION_DDOT":0},{"OBJECT_NAME":"LUR-1","OBJECT_ID":"2024-149AQ","EPOCH":"2026-03-09T19:05:45.284064","MEAN_MOTION":15.28658648,"ECCENTRICITY":0.00027765,"INCLINATION":97.379,"RA_OF_ASC_NODE":148.4255,"ARG_OF_PERICENTER":309.1571,"MEAN_ANOMALY":50.9421,"EPHEMERIS_TYPE":0,"CLASSIFICATION_TYPE":"U","NORAD_CAT_ID":60506,"ELEMENT_SET_NO":999,"REV_AT_EPOCH":8678,"BSTAR":0.0003298462,"MEAN_MOTION_DOT":9.121e-5,"MEAN_MOTION_DDOT":0}]
